IRIDIUM 116             
1 43072U 17083C   24053.13216602 -.00000006  00000+0 -91085-5 0  9995
2 43072  86.3989 315.6150 0002276  84.3404 275.8052 14.34216949322900
IRIDIUM 151             
1 43074U 17083E   24052.79600931  .00000196  00000+0  62856-4 0  9991
2 43074  86.3991 315.7940 0002203  75.4477 284.6963 14.34218046322824
IRIDIUM 141             
1 43077U 17083H   24052.77064375  .00000399  00000+0  13555-3 0  9994
2 43077  86.3989 315.7556 0001982  83.9485 276.1937 14.34217396322850
IRIDIUM 153             
1 43078U 17083J   24052.93210994  .00000373  00000+0  12616-3 0  9992
2 43078  86.3939 284.1305 0001702  75.3948 284.7436 14.34217708323987
IRIDIUM 131             
1 43079U 17083K   24052.82772371  .00000128  00000+0  38809-4 0  9994
2 43079  86.3996 315.8613 0002215  83.4559 276.6889 14.34215966322797
